OBJECT_NAME,OBJECT_ID,EPOCH,MEAN_MOTION,ECCENTRICITY,INCLINATION,RA_OF_ASC_NODE,ARG_OF_PERICENTER,MEAN_ANOMALY,EPHEMERIS_TYPE,CLASSIFICATION_TYPE,NORAD_CAT_ID,ELEMENT_SET_NO,REV_AT_EPOCH,BSTAR,MEAN_MOTION_DOT,MEAN_MOTION_DDOT
HST,1990-037B,2026-06-22T16:26:04.135776,15.30802244,.00015255,28.4724,43.0006,203.6425,156.4101,0,U,20580,999,78941,.17107506E-3,.5473E-4,0
POLAR,1996-013A,2026-06-21T15:48:09.590112,1.29846120,.64748323,79.8598,226.9999,208.9246,90.1528,0,U,23802,999,14491,0,.83E-6,0
SWAS,1998-071A,2026-06-22T13:57:23.887008,15.09647684,.00087096,69.8931,213.6077,254.2781,105.7423,0,U,25560,999,49808,.12467825E-3,.1907E-4,0
CXO,1999-040B,2026-06-23T16:00:24.124896,0.37805674,.78225369,56.2626,116.4520,310.2350,0.3190,0,U,25867,999,1734,0,.425E-5,0
XMM-NEWTON,1999-066A,2026-06-24T07:55:24.843360,0.50128025,.46714386,64.4456,282.8935,64.7696,0.0750,0,U,25989,999,2304,0,-.26E-6,0
TERRA,1999-068A,2026-06-22T20:22:31.768320,14.61106688,.00020209,97.9453,223.1708,172.1555,303.9588,0,U,25994,999,41043,.60347105E-4,.252E-5,0
CLUSTER II-FM7 (SAMBA),2000-041A,2026-06-23T19:59:48.851520,0.44848953,.90604612,149.9074,51.9813,269.2403,359.6223,0,U,26410,999,2034,0,.5249E-4,0
CLUSTER II-FM8 (TANGO),2000-045B,2026-06-21T22:35:46.738752,0.44411872,.90650609,150.1402,52.7864,269.8634,2.6567,0,U,26464,999,2033,0,.4856E-4,0
ODIN,2001-007A,2026-06-22T08:41:54.885984,15.77483652,.00065763,97.3823,214.6432,138.3244,221.8524,0,U,26702,999,39021,.97827157E-3,.164483E-2,0
TIMED,2001-055B,2026-06-22T10:15:32.278752,14.95302389,.00014044,74.0667,224.4674,327.7116,32.3983,0,U,26998,999,33160,.6260318E-4,.65E-5,0
CORIOLIS,2003-001A,2026-06-22T11:34:09.912288,14.19946091,.00136597,98.7125,180.2861,192.9626,167.1202,0,U,27640,999,21497,.5912947E-4,.82E-6,0
SORCE,2003-004A,2026-06-22T10:51:46.860480,15.03733230,.00162191,39.9900,231.6362,89.6044,270.6608,0,U,27651,999,27269,.13438932E-3,.1728E-4,0
MOST,2003-031D,2026-06-22T10:05:43.672704,14.21323325,.00088788,98.7044,181.0736,233.4149,126.6212,0,U,27843,999,19145,.37900363E-4,.39E-6,0
SCISAT 1,2003-036A,2026-06-22T16:41:33.809280,14.81452066,.00083759,73.9285,160.3984,230.5590,129.4846,0,U,27858,999,23226,.55937099E-4,.401E-5,0
SWIFT,2004-047A,2026-06-22T14:13:27.891552,15.68789555,.00014659,20.5513,143.1873,14.6964,345.3525,0,U,28485,999,18771,.36665184E-3,.45041E-3,0
HINODE (SOLAR-B),2006-041A,2026-06-22T11:59:29.474016,14.68628677,.00159385,98.0544,189.5739,271.3379,88.6001,0,U,29479,999,5565,.88902873E-4,.468E-5,0
SHIJIAN-6 02A (SJ-6 02A),2006-046A,2026-06-22T19:55:42.093120,15.16995747,.00046923,97.6361,214.9389,111.5996,248.5738,0,U,29505,999,7312,.23742372E-3,.4622E-4,0
SHIJIAN-6 02B (SJ-6 02B),2006-046B,2026-06-22T19:28:22.329120,15.01387861,.00154363,97.7160,202.8357,44.5331,315.7131,0,U,29506,999,7158,.71812441E-4,.867E-5,0
FGRST (GLAST),2008-029A,2026-06-22T15:55:06.136608,15.23964102,.00082199,25.5801,166.4563,33.1727,326.9325,0,U,33053,999,99667,.6927261E-4,.2061E-4,0
SDO,2010-005A,2026-06-22T07:02:07.854144,1.00270530,.00017562,34.6629,86.2635,48.5952,139.0030,0,U,36395,999,6011,0,-.86E-6,0
CRYOSAT 2,2010-013A,2026-06-22T19:14:42.420768,14.51900936,.0002119,92.0359,278.6663,92.3993,267.7457,0,U,36508,999,85889,.32159084E-4,.132E-5,0
X-SAT,2011-015C,2026-06-22T20:12:24.448896,14.25207800,.00135274,98.3516,150.5961,331.6075,28.4367,0,U,37389,999,78848,.9238004E-4,.176E-5,0
GCOM-W1 (SHIZUKU),2012-025A,2026-06-22T14:47:25.886112,14.57128615,.00017093,98.2021,114.0898,71.7261,101.1578,0,U,38337,999,74982,.78632214E-4,.309E-5,0
NUSTAR,2012-031A,2026-06-22T20:00:01.999872,15.08844836,.00083277,6.0277,351.7814,198.5877,42.4394,0,U,38358,999,130,.57160625E-3,.10148E-3,0
NEOSSAT,2013-009D,2026-06-22T10:27:50.605632,14.35827888,.00100891,98.4180,353.3437,226.5203,133.5145,0,U,39089,999,69749,.48652804E-4,.98E-6,0
BRITE-AUSTRIA,2013-009F,2026-06-22T10:22:06.340512,14.36543788,.00093833,98.3998,352.7378,219.2223,140.8284,0,U,39091,999,69780,.55016594E-4,.119E-5,0
IRIS,2013-033A,2026-06-22T11:38:07.270368,14.85893494,.00232065,97.9328,12.7451,303.7052,56.1950,0,U,39197,999,70116,.85133683E-4,.689E-5,0
HISAKI (SPRINT-A),2013-049A,2026-06-22T17:25:53.166720,13.55545142,.01368477,29.7171,191.8497,61.7569,299.6744,0,U,39253,999,63217,.51775672E-4,.101E-5,0
CASSIOPE,2013-055A,2026-06-22T19:16:30.452736,15.25681282,.02906651,80.9143,59.8998,43.5612,318.8176,0,U,39265,999,66852,.46002437E-3,.42326E-3,-.49946E-6
STSAT-3,2013-066G,2026-06-22T20:08:20.484672,15.02783782,.00108085,97.6223,143.6360,29.9166,330.2675,0,U,39422,999,68505,.21656359E-3,.284E-4,0
