HST                     
1 20580U 90037B   26173.68477009  .00005473  00000+0  17108-3 0  9992
2 20580  28.4724  43.0006 0001525 203.6425 156.4101 15.30802244789418
POLAR                   
1 23802U 96013A   26172.65844433  .00000083  00000+0  00000+0 0  9998
2 23802  79.8598 226.9999 6474832 208.9246  90.1528  1.29846120144911
SWAS                    
1 25560U 98071A   26173.58152647  .00001907  00000+0  12468-3 0  9990
2 25560  69.8931 213.6077 0008709 254.2781 105.7423 15.09647684498086
CXO                     
1 25867U 99040B   26174.66694589  .00000425  00000+0  00000+0 0  9992
2 25867  56.2626 116.4520 7822536 310.2350   0.3190  0.37805674 17341
XMM-NEWTON              
1 25989U 99066A   26175.33014865 -.00000026  00000+0  00000+0 0  9991
2 25989  64.4456 282.8935 4671438  64.7696   0.0750  0.50128025 23046
TERRA                   
1 25994U 99068A   26173.84897880  .00000252  00000+0  60347-4 0  9994
2 25994  97.9453 223.1708 0002020 172.1555 303.9588 14.61106688410430
CLUSTER II-FM7 (SAMBA)  
1 26410U 00041A   26174.83320430  .00005249  00000+0  00000+0 0  9999
2 26410 149.9074  51.9813 9060461 269.2403 359.6223  0.44848953 20342
CLUSTER II-FM8 (TANGO)  
1 26464U 00045B   26172.94151318  .00004856  00000+0  00000+0 0  9992
2 26464 150.1402  52.7864 9065060 269.8634   2.6567  0.44411872 20338
ODIN                    
1 26702U 01007A   26173.36244081  .00164483  00000+0  97827-3 0  9993
2 26702  97.3823 214.6432 0006576 138.3244 221.8524 15.77483652390219
TIMED                   
1 26998U 01055B   26173.42745693  .00000650  00000+0  62603-4 0  9995
2 26998  74.0667 224.4674 0001404 327.7116  32.3983 14.95302389331606
CORIOLIS                
1 27640U 03001A   26173.48205917  .00000082  00000+0  59129-4 0  9997
2 27640  98.7125 180.2861 0013659 192.9626 167.1202 14.19946091214974
SORCE                   
1 27651U 03004A   26173.45262570  .00001728  00000+0  13439-3 0  9998
2 27651  39.9900 231.6362 0016219  89.6044 270.6608 15.03733230272698
MOST                    
1 27843U 03031D   26173.42064436  .00000039  00000+0  37900-4 0  9993
2 27843  98.7044 181.0736 0008878 233.4149 126.6212 14.21323325191457
SCISAT 1                
1 27858U 03036A   26173.69553020  .00000401  00000+0  55937-4 0  9998
2 27858  73.9285 160.3984 0008375 230.5590 129.4846 14.81452066232260
SWIFT                   
1 28485U 04047A   26173.59268393  .00045041  00000+0  36665-3 0  9998
2 28485  20.5513 143.1873 0001465  14.6964 345.3525 15.68789555187718
HINODE (SOLAR-B)        
1 29479U 06041A   26173.49964669  .00000468  00000+0  88903-4 0  9993
2 29479  98.0544 189.5739 0015938 271.3379  88.6001 14.68628677 55652
SHIJIAN-6 02A (SJ-6 02A)
1 29505U 06046A   26173.83034830  .00004622  00000+0  23742-3 0  9999
2 29505  97.6361 214.9389 0004692 111.5996 248.5738 15.16995747 73128
SHIJIAN-6 02B (SJ-6 02B)
1 29506U 06046B   26173.81136955  .00000867  00000+0  71812-4 0  9998
2 29506  97.7160 202.8357 0015436  44.5331 315.7131 15.01387861 71582
FGRST (GLAST)           
1 33053U 08029A   26173.66326547  .00002061  00000+0  69273-4 0  9990
2 33053  25.5801 166.4563 0008219  33.1727 326.9325 15.23964102996671
SDO                     
1 36395U 10005A   26173.29314646 -.00000086  00000+0  00000+0 0  9999
2 36395  34.6629  86.2635 0001756  48.5952 139.0030  1.00270530 60112
CRYOSAT 2               
1 36508U 10013A   26173.80187987  .00000132  00000+0  32159-4 0  9993
2 36508  92.0359 278.6663 0002119  92.3993 267.7457 14.51900936858892
X-SAT                   
1 37389U 11015C   26173.84194964  .00000176  00000+0  92380-4 0  9991
2 37389  98.3516 150.5961 0013527 331.6075  28.4367 14.25207800788488
GCOM-W1 (SHIZUKU)       
1 38337U 12025A   26173.61627183  .00000309  00000+0  78632-4 0  9998
2 38337  98.2021 114.0898 0001709  71.7261 101.1578 14.57128615749823
NUSTAR                  
1 38358U 12031A   26173.83335648  .00010148  00000+0  57161-3 0  9999
2 38358   6.0277 351.7814 0008327 198.5877  42.4394 15.08844836  1302
NEOSSAT                 
1 39089U 13009D   26173.43600238  .00000098  00000+0  48653-4 0  9993
2 39089  98.4180 353.3437 0010089 226.5203 133.5145 14.35827888697498
BRITE-AUSTRIA           
1 39091U 13009F   26173.43201783  .00000119  00000+0  55017-4 0  9994
2 39091  98.3998 352.7378 0009383 219.2223 140.8284 14.36543788697805
IRIS                    
1 39197U 13033A   26173.48480637  .00000689  00000+0  85134-4 0  9995
2 39197  97.9328  12.7451 0023206 303.7052  56.1950 14.85893494701168
HISAKI (SPRINT-A)       
1 39253U 13049A   26173.72630980  .00000101  00000+0  51776-4 0  9994
2 39253  29.7171 191.8497 0136847  61.7569 299.6744 13.55545142632178
CASSIOPE                
1 39265U 13055A   26173.80313024  .00042326 -49946-6  46002-3 0  9990
2 39265  80.9143  59.8998 0290665  43.5612 318.8176 15.25681282668520
STSAT-3                 
1 39422U 13066G   26173.83912598  .00002840  00000+0  21656-3 0  9996
2 39422  97.6223 143.6360 0010808  29.9166 330.2675 15.02783782685057
